ORBCOMM-X               
1 21576U 91050C   25325.19015779  .00000416  00000+0  13575-3 0  9996
2 21576  98.3259  28.4521 0004756  77.8154 282.3569 14.43410198804760
ORBCOMM FM01            
1 23545U 95017A   25325.57981453  .00010458  00000+0  10197-2 0  9997
2 23545  69.9642  41.0360 0001864   0.8118 359.3040 14.92669884635979
ORBCOMM FM02            
1 23546U 95017B   25325.47500049  .00011499  00000+0  10809-2 0  9991
2 23546  69.9650  60.0468 0002618  34.7873 325.3454 14.94088272635623
ORBCOMM FM08            
1 25112U 97084A   25325.41825221  .00001894  00000+0  56106-3 0  9993
2 25112  45.0144 332.7595 0008008 313.7845  46.2344 14.46477235464136
ORBCOMM FM10            
1 25113U 97084B   25325.42355084  .00001725  00000+0  51709-3 0  9997
2 25113  45.0156 335.4012 0006963 286.3091  73.6994 14.46234074639276
ORBCOMM FM11            
1 25114U 97084C   25325.52488279  .00001749  00000+0  52652-3 0  9996
2 25114  45.0140 335.8382 0007747 288.0086  71.9922 14.45974373464245
ORBCOMM FM12            
1 25115U 97084D   25325.41608218  .00001727  00000+0  52041-3 0  9990
2 25115  45.0146 336.0950 0006860 284.9572  75.0520 14.45998325464024
ORBCOMM FM09            
1 25116U 97084E   25325.46294729  .00001530  00000+0  46703-3 0  9994
2 25116  45.0151 336.9709 0008039 277.1121  82.8816 14.45846742464238
